Satellite: AO-07
Catalog number: 07530
Epoch time:      13059.89292272
Element set:     619
Inclination:      101.4247 deg
RA of node:       053.3618 deg
Eccentricity:    0.0012213
Arg of perigee:   138.7713 deg
Mean anomaly:     283.2960 deg
Mean motion:   12.53594392 rev/day
Decay rate:       -6.0e-08 rev/day^2
Epoch rev:           75221
Checksum:              290

Satellite: FO-29
Catalog number: 24278
Epoch time:      13059.88725693
Element set:      60
Inclination:      098.5685 deg
RA of node:       132.8769 deg
Eccentricity:    0.0351469
Arg of perigee:   084.7962 deg
Mean anomaly:     026.0938 deg
Mean motion:   13.52996627 rev/day
Decay rate:       -2.5e-07 rev/day^2
Epoch rev:           81666
Checksum:              371

Satellite: SO-33
Catalog number: 25509
Epoch time:      13058.85617043
Element set:     442
Inclination:      031.4339 deg
RA of node:       326.5917 deg
Eccentricity:    0.0351848
Arg of perigee:   280.8018 deg
Mean anomaly:     156.5655 deg
Mean motion:   14.28963126 rev/day
Decay rate:       3.23e-06 rev/day^2
Epoch rev:           74924
Checksum:              319

Satellite: RS-22
Catalog number: 27939
Epoch time:      13059.54004247
Element set:     201
Inclination:      097.7981 deg
RA of node:       253.0584 deg
Eccentricity:    0.0013385
Arg of perigee:   167.8937 deg
Mean anomaly:     192.2595 deg
Mean motion:   14.64331229 rev/day
Decay rate:       2.66e-06 rev/day^2
Epoch rev:           50339
Checksum:              322

Satellite: VO-52
Catalog number: 28650
Epoch time:      13059.82469071
Element set:     356
Inclination:      097.5767 deg
RA of node:       083.9716 deg
Eccentricity:    0.0024503
Arg of perigee:   276.8552 deg
Mean anomaly:     189.3530 deg
Mean motion:   14.83592428 rev/day
Decay rate:       8.52e-06 rev/day^2
Epoch rev:           42301
Checksum:              331

Satellite: HO-68
Catalog number: 36122
Epoch time:      13059.81588343
Element set:     325
Inclination:      100.3222 deg
RA of node:       119.5486 deg
Eccentricity:    0.0007196
Arg of perigee:   241.6052 deg
Mean anomaly:     118.4336 deg
Mean motion:   13.16302170 rev/day
Decay rate:       -4.4e-07 rev/day^2
Epoch rev:           15415
Checksum:              269

/EX
SB KEPS @ AMSAT  $ORB13059.D
Orbital Elements  13059.MICROS

HR AMSAT ORBITAL ELEMENTS FOR THE MICROSATS
FROM WA5QGD FORT WORTH,TX February 28, 2013
BID: ORB13059.D
TO ALL RADIO AMATEURS BT

Satellite: UO-11
Catalog number: 14781
Epoch time:      13059.72441933
Element set:     113
Inclination:      097.9162 deg
RA of node:       122.5265 deg
Eccentricity:    0.0007496
Arg of perigee:   280.0010 deg
Mean anomaly:     080.0357 deg
Mean motion:   14.80763801 rev/day
Decay rate:       3.41e-06 rev/day^2
Epoch rev:           55788
Checksum:              285

Satellite: AO-16
Catalog number: 20439
Epoch time:      13059.85756576
Element set:     686
Inclination:      098.4619 deg
RA of node:       002.4554 deg
Eccentricity:    0.0012074
Arg of perigee:   117.6521 deg
Mean anomaly:     276.0658 deg
Mean motion:   14.32141696 rev/day
Decay rate:       1.09e-06 rev/day^2
Epoch rev:           20673
Checksum:              315

Satellite: LO-19
Catalog number: 20442
Epoch time:      13059.00930448
Element set:     618
Inclination:      098.4302 deg
RA of node:       003.7662 deg
Eccentricity:    0.0013130
Arg of perigee:   111.7941 deg
Mean anomaly:     310.2154 deg
Mean motion:   14.32354663 rev/day
Decay rate:       1.17e-06 rev/day^2
Epoch rev:           20680
Checksum:              253

Satellite: AO-27
Catalog number: 22825
Epoch time:      13059.85831663
Element set:     324
Inclination:      098.6080 deg
RA of node:       005.0909 deg
Eccentricity:    0.0007476
Arg of perigee:   241.4785 deg
Mean anomaly:     184.0335 deg
Mean motion:   14.29536011 rev/day
Decay rate:        8.9e-07 rev/day^2
Epoch rev:            1315
Checksum:              298

Satellite: IO-26
Catalog number: 22826
Epoch time:      13059.03831388
Element set:      81
Inclination:      098.6019 deg
RA of node:       004.5907 deg
Eccentricity:    0.0008058
Arg of perigee:   237.2559 deg
Mean anomaly:     181.2487 deg
Mean motion:   14.29816895 rev/day
Decay rate:       1.18e-06 rev/day^2
Epoch rev:            1316
Checksum:              316

Satellite: GO-32
Catalog number: 25397
Epoch time:      13059.86622731
Element set:      10
Inclination:      098.4020 deg
RA of node:       032.4124 deg
Eccentricity:    0.0000583
Arg of perigee:   185.0232 deg
Mean anomaly:     260.8310 deg
Mean motion:   14.23323669 rev/day
Decay rate:        6.5e-07 rev/day^2
Epoch rev:           76053
Checksum:              263

Satellite: NO-44
Catalog number: 26931
Epoch time:      13058.87065880
Element set:     270
Inclination:      067.0524 deg
RA of node:       181.3040 deg
Eccentricity:    0.0005771
Arg of perigee:   285.1394 deg
Mean anomaly:     220.6216 deg
Mean motion:   14.29890586 rev/day
Decay rate:        7.6e-07 rev/day^2
Epoch rev:           59579
Checksum:              320

Satellite: SO-50
Catalog number: 27607
Epoch time:      13059.88843841
Element set:       4
Inclination:      064.5558 deg
RA of node:       233.7958 deg
Eccentricity:    0.0058977
Arg of perigee:   194.5664 deg
Mean anomaly:     237.6932 deg
Mean motion:   14.72775043 rev/day
Decay rate:       6.67e-06 rev/day^2
Epoch rev:           54776
Checksum:              364

Satellite: CO-55
Catalog number: 27844
Epoch time:      13059.07202794
Element set:     590
Inclination:      098.7037 deg
RA of node:       069.7273 deg
Eccentricity:    0.0009625
Arg of perigee:   197.7340 deg
Mean anomaly:     194.8515 deg
Mean motion:   14.21163684 rev/day
Decay rate:       1.65e-06 rev/day^2
Epoch rev:           50123
Checksum:              321

Satellite: CO-57
Catalog number: 27848
Epoch time:      13058.51067025
Element set:     536
Inclination:      098.7120 deg
RA of node:       068.6295 deg
Eccentricity:    0.0009404
Arg of perigee:   205.0707 deg
Mean anomaly:     301.8948 deg
Mean motion:   14.20896380 rev/day
Decay rate:       1.21e-06 rev/day^2
Epoch rev:           50108
Checksum:              301

Satellite: AO-51
Catalog number: 28375
Epoch time:      13059.86513344
Element set:     497
Inclination:      098.1886 deg
RA of node:       019.7511 deg
Eccentricity:    0.0082918
Arg of perigee:   344.6836 deg
Mean anomaly:     067.4863 deg
Mean motion:   14.41072419 rev/day
Decay rate:       1.99e-06 rev/day^2
Epoch rev:           45573
Checksum:              349

