/EX
SB KEPS @ AMSAT  $ORB13059.N
2Line Orbital Elements 13059.AMSAT

HR AMSAT ORBITAL ELEMENTS FOR AMATEUR SATELLITES IN NASA FORMAT
Send SUBSCRIBE KEPS/UNSUBSCRIBE KEPS to majordomo at amsat.org only
BID: ORB13059.N

DECODE 2-LINE ELSETS WITH THE FOLLOWING KEY:
1 AAAAAU 00  0  0 BBBBB.BBBBBBBB  .CCCCCCCC  00000-0  00000-0 0  DDDZ
2 AAAAA EEE.EEEE FFF.FFFF GGGGGGG HHH.HHHH III.IIII JJ.JJJJJJJJKKKKKZ
KEY: A-CATALOGNUM B-EPOCHTIME C-DECAY D-ELSETNUM E-INCLINATION F-RAAN
G-ECCENTRICITY H-ARGPERIGEE I-MNANOM J-MNMOTION K-ORBITNUM Z-CHECKSUM

TO ALL RADIO AMATEURS BT

AO-07
1 07530U 74089B   13059.89292272 -.00000006  00000-0  23105-3 0  6192
2 07530 101.4247 053.3618 0012213 138.7713 283.2960 12.53594392752211
FO-29
1 24278U 96046B   13059.88725693 -.00000025  00000-0  73592-5 0   602
2 24278 098.5685 132.8769 0351469 084.7962 026.0938 13.52996627816661
SO-33
1 25509U 98061B   13058.85617043  .00000323  00000-0  50161-4 0  4424
2 25509 031.4339 326.5917 0351848 280.8018 156.5655 14.28963126749246
RS-22
1 27939U 03042A   13059.54004247  .00000266  00000-0  58805-4 0  2013
2 27939 097.7981 253.0584 0013385 167.8937 192.2595 14.64331229503399
VO-52
1 28650U 05017B   13059.82469071  .00000852  00000-0  10897-3 0  3569
2 28650 097.5767 083.9716 0024503 276.8552 189.3530 14.83592428423012
HO-68
1 36122U 09072B   13059.81588343 -.00000044  00000-0  00000 0 0  3251
2 36122 100.3222 119.5486 0007196 241.6052 118.4336 13.16302170154159
UO-11
1 14781U 84021B   13059.72441933  .00000341  00000-0  51098-4 0  1130
2 14781 097.9162 122.5265 0007496 280.0010 080.0357 14.80763801557881
AO-16
1 20439U 90005D   13059.85756576  .00000109  00000-0  56180-4 0  6866
2 20439 098.4619 002.4554 0012074 117.6521 276.0658 14.32141696206733
LO-19
1 20442U 90005G   13059.00930448  .00000117  00000-0  58906-4 0  6181
2 20442 098.4302 003.7662 0013130 111.7941 310.2154 14.32354663206805
AO-27
1 22825U 93061C   13059.85831663  .00000089  00000-0  51995-4 0  3248
2 22825 098.6080 005.0909 0007476 241.4785 184.0335 14.29536011 13156
IO-26
1 22826U 93061D   13059.03831388  .00000118  00000-0  62797-4 0   818
2 22826 098.6019 004.5907 0008058 237.2559 181.2487 14.29816895 13169
GO-32
1 25397U 98043D   13059.86622731  .00000065  00000-0  46804-4 0   104
2 25397 098.4020 032.4124 0000583 185.0232 260.8310 14.23323669760534
NO-44
1 26931U 01043C   13058.87065880  .00000076  00000-0  61763-4 0  2700
2 26931 067.0524 181.3040 0005771 285.1394 220.6216 14.29890586595792
SO-50
1 27607U 02058C   13059.88843841  .00000667  00000-0  12276-3 0    46
2 27607 064.5558 233.7958 0058977 194.5664 237.6932 14.72775043547766
CO-55
1 27844U 03031E   13059.07202794  .00000165  00000-0  96006-4 0  5905
2 27844 098.7037 069.7273 0009625 197.7340 194.8515 14.21163684501238
CO-57
1 27848U 03031J   13058.51067025  .00000121  00000-0  75943-4 0  5362
2 27848 098.7120 068.6295 0009404 205.0707 301.8948 14.20896380501080
AO-51
1 28375U 04025K   13059.86513344  .00000199  00000-0  72370-4 0  4973
2 28375 098.1886 019.7511 0082918 344.6836 067.4863 14.41072419455734
